{"type": "FeatureCollection", "features": [ {"type": "Feature", "properties": {"norad_id": 35462, "name": "COSMOS 2251 DEB", "group": "cosmos-2251-debris", "lat": 72.9073653719255, "lon": -14.969390067016088, "alt_km": 827.7869284365079, "timestamp": "2025-12-08T10:52:03.344592+00:00", "meta": {"OBJECT_NAME": "COSMOS 2251 DEB", "OBJECT_ID": "1993-036ALG", "EPOCH": "2025-12-07T12:38:18.420576", "MEAN_MOTION": 14.29225267, "ECCENTRICITY": 0.00868823, "INCLINATION": 74.0375, "RA_OF_ASC_NODE": 278.1516, "ARG_OF_PERICENTER": 314.4017, "MEAN_ANOMALY": 45.004, "EPHEMERIS_TYPE": 0, "CLASSIFICATION_TYPE": "U", "NORAD_CAT_ID": 35462, "ELEMENT_SET_NO": 999, "REV_AT_EPOCH": 66306, "BSTAR": 0.0029111879, "MEAN_MOTION_DOT": 7.686e-05, "MEAN_MOTION_DDOT": 0}, "tle": {"line1": "1 35462U 93036ALG 25341.52660209  .00007686  00000+0  29112-2 0  9999", "line2": "2 35462  74.0375 278.1516 0086882 314.4017  45.0040 14.29225267663064"}}, "geometry": {"type": "Point", "coordinates": [-14.969390067016088, 72.9073653719255]}}, {"type": "Feature", "properties": {"norad_id": 35465, "name": "COSMOS 2251 DEB", "group": "cosmos-2251-debris", "lat": -73.97531932883481, "lon": 112.52559877743946, "alt_km": 756.4434157769074, "timestamp": "2025-12-08T10:52:03.344602+00:00", "meta": {"OBJECT_NAME": "COSMOS 2251 DEB", "OBJECT_ID": "1993-036ALK", "EPOCH": "2025-11-29T22:48:34.232544", "MEAN_MOTION": 14.44263019, "ECCENTRICITY": 0.00634289, "INCLINATION": 73.9997, "RA_OF_ASC_NODE": 220.8763, "ARG_OF_PERICENTER": 24.0529, "MEAN_ANOMALY": 336.3567, "EPHEMERIS_TYPE": 0, "CLASSIFICATION_TYPE": "U", "NORAD_CAT_ID": 35465, "ELEMENT_SET_NO": 999, "REV_AT_EPOCH": 87057, "BSTAR": 0.00049692277, "MEAN_MOTION_DOT": 1.723e-05, "MEAN_MOTION_DDOT": 0}, "tle": {"line1": "1 35465U 93036ALK 25333.95039621  .00001723  00000+0  49692-3 0  9990", "line2": "2 35465  73.9997 220.8763 0063428  24.0529 336.3567 14.44263019870576"}}, "geometry": {"type": "Point", "coordinates": [112.52559877743946, -73.97531932883481]}}, {"type": "Feature", "properties": {"norad_id": 35469, "name": "COSMOS 2251 DEB", "group": "cosmos-2251-debris", "lat": 20.310106986317226, "lon": 38.018106723789494, "alt_km": 779.3521933536131, "timestamp": "2025-12-08T10:52:03.344612+00:00", "meta": {"OBJECT_NAME": "COSMOS 2251 DEB", "OBJECT_ID": "1993-036ALP", "EPOCH": "2025-12-07T11:35:01.685760", "MEAN_MOTION": 14.4981221, "ECCENTRICITY": 0.00771882, "INCLINATION": 74.0177, "RA_OF_ASC_NODE": 33.7518, "ARG_OF_PERICENTER": 190.4188, "MEAN_ANOMALY": 169.5378, "EPHEMERIS_TYPE": 0, "CLASSIFICATION_TYPE": "U", "NORAD_CAT_ID": 35469, "ELEMENT_SET_NO": 999, "REV_AT_EPOCH": 88035, "BSTAR": 0.00021613901, "MEAN_MOTION_DOT": 8.36e-06, "MEAN_MOTION_DDOT": 0}, "tle": {"line1": "1 35469U 93036ALP 25341.48265840  .00000836  00000+0  21614-3 0  9993", "line2": "2 35469  74.0177  33.7518 0077188 190.4188 169.5378 14.49812210880359"}}, "geometry": {"type": "Point", "coordinates": [38.018106723789494, 20.310106986317226]}}, {"type": "Feature", "properties": {"norad_id": 35475, "name": "COSMOS 2251 DEB", "group": "cosmos-2251-debris", "lat": -65.43913833887362, "lon": 135.11360740781328, "alt_km": 658.3164204543209, "timestamp": "2025-12-08T10:52:03.344622+00:00", "meta": {"OBJECT_NAME": "COSMOS 2251 DEB", "OBJECT_ID": "1993-036ALV", "EPOCH": "2025-12-07T22:07:12.011520", "MEAN_MOTION": 14.69575528, "ECCENTRICITY": 0.0020814, "INCLINATION": 74.0218, "RA_OF_ASC_NODE": 174.969, "ARG_OF_PERICENTER": 248.2857, "MEAN_ANOMALY": 111.6098, "EPHEMERIS_TYPE": 0, "CLASSIFICATION_TYPE": "U", "NORAD_CAT_ID": 35475, "ELEMENT_SET_NO": 999, "REV_AT_EPOCH": 65546, "BSTAR": 0.0021858185, "MEAN_MOTION_DOT": 0.0001302, "MEAN_MOTION_DDOT": 0}, "tle": {"line1": "1 35475U 93036ALV 25341.92166680  .00013020  00000+0  21858-2 0  9999", "line2": "2 35475  74.0218 174.9690 0020814 248.2857 111.6098 14.69575528655469"}}, "geometry": {"type": "Point", "coordinates": [135.11360740781328, -65.43913833887362]}}, {"type": "Feature", "properties": {"norad_id": 35476, "name": "COSMOS 2251 DEB", "group": "cosmos-2251-debris", "lat": 40.968790384793145, "lon": 83.78080140054641, "alt_km": 627.8355122543417, "timestamp": "2025-12-08T10:52:03.344633+00:00", "meta": {"OBJECT_NAME": "COSMOS 2251 DEB", "OBJECT_ID": "1993-036ALW", "EPOCH": "2025-12-07T10:49:58.723968", "MEAN_MOTION": 14.75499518, "ECCENTRICITY": 0.00174077, "INCLINATION": 73.9782, "RA_OF_ASC_NODE": 71.2967, "ARG_OF_PERICENTER": 55.895, "MEAN_ANOMALY": 69.9168, "EPHEMERIS_TYPE": 0, "CLASSIFICATION_TYPE": "U", "NORAD_CAT_ID": 35476, "ELEMENT_SET_NO": 999, "REV_AT_EPOCH": 87809, "BSTAR": 0.0027461364, "MEAN_MOTION_DOT": 0.00018757, "MEAN_MOTION_DDOT": 0}, "tle": {"line1": "1 35476U 93036ALW 25341.45137412  .00018757  00000+0  27461-2 0  9997", "line2": "2 35476  73.9782  71.2967 0017407  55.8950  69.9168 14.75499518878090"}}, "geometry": {"type": "Point", "coordinates": [83.78080140054641, 40.968790384793145]}}, {"type": "Feature", "properties": {"norad_id": 35580, "name": "COSMOS 2251 DEB", "group": "cosmos-2251-debris", "lat": 61.11704686750001, "lon": -25.55893264037551, "alt_km": 894.9509097354203, "timestamp": "2025-12-08T10:52:03.344643+00:00", "meta": {"OBJECT_NAME": "COSMOS 2251 DEB", "OBJECT_ID": "1993-036ALX", "EPOCH": "2025-12-06T21:51:49.269024", "MEAN_MOTION": 13.83821036, "ECCENTRICITY": 0.02818687, "INCLINATION": 73.9, "RA_OF_ASC_NODE": 188.633, "ARG_OF_PERICENTER": 195.0077, "MEAN_ANOMALY": 164.256, "EPHEMERIS_TYPE": 0, "CLASSIFICATION_TYPE": "U", "NORAD_CAT_ID": 35580, "ELEMENT_SET_NO": 999, "REV_AT_EPOCH": 62176, "BSTAR": 0.0026984958, "MEAN_MOTION_DOT": 4.042e-05, "MEAN_MOTION_DDOT": 0}, "tle": {"line1": "1 35580U 93036ALX 25340.91098691  .00004042  00000+0  26985-2 0  9990", "line2": "2 35580  73.9000 188.6330 0281868 195.0077 164.2560 13.83821036621764"}}, "geometry": {"type": "Point", "coordinates": [-25.55893264037551, 61.11704686750001]}}, {"type": "Feature", "properties": {"norad_id": 35583, "name": "COSMOS 2251 DEB", "group": "cosmos-2251-debris", "lat": -67.3873174350583, "lon": 82.79983524911273, "alt_km": 776.8353705203181, "timestamp": "2025-12-08T10:52:03.344653+00:00", "meta": {"OBJECT_NAME": "COSMOS 2251 DEB", "OBJECT_ID": "1993-036AMA", "EPOCH": "2025-12-07T08:48:07.708896", "MEAN_MOTION": 13.55322681, "ECCENTRICITY": 0.03856923, "INCLINATION": 73.9176, "RA_OF_ASC_NODE": 220.7241, "ARG_OF_PERICENTER": 246.0627, "MEAN_ANOMALY": 109.9644, "EPHEMERIS_TYPE": 0, "CLASSIFICATION_TYPE": "U", "NORAD_CAT_ID": 35583, "ELEMENT_SET_NO": 999, "REV_AT_EPOCH": 82339, "BSTAR": 0.00088237317, "MEAN_MOTION_DOT": 9.6e-06, "MEAN_MOTION_DDOT": 0}, "tle": {"line1": "1 35583U 93036AMA 25341.36675589  .00000960  00000+0  88237-3 0  9994", "line2": "2 35583  73.9176 220.7241 0385692 246.0627 109.9644 13.55322681823391"}}, "geometry": {"type": "Point", "coordinates": [82.79983524911273, -67.3873174350583]}}, {"type": "Feature", "properties": {"norad_id": 35585, "name": "COSMOS 2251 DEB", "group": "cosmos-2251-debris", "lat": -71.35968973300152, "lon": -125.9775454822883, "alt_km": 761.4574981885562, "timestamp": "2025-12-08T10:52:03.344663+00:00", "meta": {"OBJECT_NAME": "COSMOS 2251 DEB", "OBJECT_ID": "1993-036AMC", "EPOCH": "2025-12-04T07:54:11.347200", "MEAN_MOTION": 13.75209322, "ECCENTRICITY": 0.0310609, "INCLINATION": 73.9717, "RA_OF_ASC_NODE": 2.4547, "ARG_OF_PERICENTER": 276.3473, "MEAN_ANOMALY": 97.5406, "EPHEMERIS_TYPE": 0, "CLASSIFICATION_TYPE": "U", "NORAD_CAT_ID": 35585, "ELEMENT_SET_NO": 999, "REV_AT_EPOCH": 63948, "BSTAR": 0.0020064, "MEAN_MOTION_DOT": 2.707e-05, "MEAN_MOTION_DDOT": 0}, "tle": {"line1": "1 35585U 93036AMC 25338.32929800  .00002707  00000+0  20064-2 0  9990", "line2": "2 35585  73.9717   2.4547 0310609 276.3473  97.5406 13.75209322639480"}}, "geometry": {"type": "Point", "coordinates": [-125.9775454822883, -71.35968973300152]}}, {"type": "Feature", "properties": {"norad_id": 35586, "name": "COSMOS 2251 DEB", "group": "cosmos-2251-debris", "lat": 72.13909961673416, "lon": 12.120562565183482, "alt_km": 1116.8478489010158, "timestamp": "2025-12-08T10:52:03.344673+00:00", "meta": {"OBJECT_NAME": "COSMOS 2251 DEB", "OBJECT_ID": "1993-036AMD", "EPOCH": "2025-12-02T16:49:03.133344", "MEAN_MOTION": 13.52074918, "ECCENTRICITY": 0.04051153, "INCLINATION": 74.0205, "RA_OF_ASC_NODE": 318.5607, "ARG_OF_PERICENTER": 196.0051, "MEAN_ANOMALY": 342.734, "EPHEMERIS_TYPE": 0, "CLASSIFICATION_TYPE": "U", "NORAD_CAT_ID": 35586, "ELEMENT_SET_NO": 999, "REV_AT_EPOCH": 60246, "BSTAR": 0.00045411914, "MEAN_MOTION_DOT": 4.79e-06, "MEAN_MOTION_DDOT": 0}, "tle": {"line1": "1 35586U 93036AMD 25336.70073071  .00000479  00000+0  45412-3 0  9990", "line2": "2 35586  74.0205 318.5607 0405115 196.0051 342.7340 13.52074918602466"}}, "geometry": {"type": "Point", "coordinates": [12.120562565183482, 72.13909961673416]}}, {"type": "Feature", "properties": {"norad_id": 35587, "name": "COSMOS 2251 DEB", "group": "cosmos-2251-debris", "lat": -73.55846873251991, "lon": -9.624643834318983, "alt_km": 594.5960773998131, "timestamp": "2025-12-08T10:52:03.344683+00:00", "meta": {"OBJECT_NAME": "COSMOS 2251 DEB", "OBJECT_ID": "1993-036AME", "EPOCH": "2025-12-06T23:21:29.867040", "MEAN_MOTION": 14.71485933, "ECCENTRICITY": 0.01027904, "INCLINATION": 74.0056, "RA_OF_ASC_NODE": 69.6568, "ARG_OF_PERICENTER": 258.589, "MEAN_ANOMALY": 100.3722, "EPHEMERIS_TYPE": 0, "CLASSIFICATION_TYPE": "U", "NORAD_CAT_ID": 35587, "ELEMENT_SET_NO": 999, "REV_AT_EPOCH": 66261, "BSTAR": 0.00050810605, "MEAN_MOTION_DOT": 3.388e-05, "MEAN_MOTION_DDOT": 0}, "tle": {"line1": "1 35587U 93036AME 25340.97326235  .00003388  00000+0  50811-3 0  9999", "line2": "2 35587  74.0056  69.6568 0102790 258.5890 100.3722 14.71485933662619"}}, "geometry": {"type": "Point", "coordinates": [-9.624643834318983, -73.55846873251991]}}]}